{"type": "FeatureCollection", "features": [ {"type": "Feature", "properties": {"norad_id": 32168, "name": "FENGYUN 1C DEB", "group": "fengyun-1c-debris", "lat": -50.05909747994141, "lon": -135.0640452264966, "alt_km": 770.8896405458327, "timestamp": "2025-12-15T11:38:37.439204+00:00", "meta": {"OBJECT_NAME": "FENGYUN 1C DEB", "OBJECT_ID": "1999-025CTN", "EPOCH": "2025-12-10T10:59:29.491872", "MEAN_MOTION": 13.86097811, "ECCENTRICITY": 0.02431154, "INCLINATION": 101.6564, "RA_OF_ASC_NODE": 52.9606, "ARG_OF_PERICENTER": 243.555, "MEAN_ANOMALY": 114.0469, "EPHEMERIS_TYPE": 0, "CLASSIFICATION_TYPE": "U", "NORAD_CAT_ID": 32168, "ELEMENT_SET_NO": 999, "REV_AT_EPOCH": 63448, "BSTAR": 0.0059949425, "MEAN_MOTION_DOT": 8.658e-05, "MEAN_MOTION_DDOT": 0}, "tle": {"line1": "1 32168U 99025CTN 25344.45798023  .00008658  00000+0  59949-2 0  9995", "line2": "2 32168 101.6564  52.9606 0243115 243.5550 114.0469 13.86097811634487"}}, "geometry": {"type": "Point", "coordinates": [-135.0640452264966, -50.05909747994141]}}, {"type": "Feature", "properties": {"norad_id": 32169, "name": "FENGYUN 1C DEB", "group": "fengyun-1c-debris", "lat": -64.56757742912053, "lon": -20.18498239714316, "alt_km": 691.6184312194237, "timestamp": "2025-12-15T11:38:37.439214+00:00", "meta": {"OBJECT_NAME": "FENGYUN 1C DEB", "OBJECT_ID": "1999-025CTP", "EPOCH": "2025-12-14T11:37:33.935520", "MEAN_MOTION": 14.67866662, "ECCENTRICITY": 0.00335379, "INCLINATION": 98.5573, "RA_OF_ASC_NODE": 177.2297, "ARG_OF_PERICENTER": 113.9473, "MEAN_ANOMALY": 246.5249, "EPHEMERIS_TYPE": 0, "CLASSIFICATION_TYPE": "U", "NORAD_CAT_ID": 32169, "ELEMENT_SET_NO": 999, "REV_AT_EPOCH": 96644, "BSTAR": 0.0042569075, "MEAN_MOTION_DOT": 0.00024558, "MEAN_MOTION_DDOT": 0}, "tle": {"line1": "1 32169U 99025CTP 25348.48442055  .00024558  00000+0  42569-2 0  9991", "line2": "2 32169  98.5573 177.2297 0033537 113.9473 246.5249 14.67866662966447"}}, "geometry": {"type": "Point", "coordinates": [-20.18498239714316, -64.56757742912053]}}, {"type": "Feature", "properties": {"norad_id": 32171, "name": "FENGYUN 1C DEB", "group": "fengyun-1c-debris", "lat": -35.40253561068465, "lon": 57.933479937047906, "alt_km": 1393.5048812352697, "timestamp": "2025-12-15T11:38:37.439225+00:00", "meta": {"OBJECT_NAME": "FENGYUN 1C DEB", "OBJECT_ID": "1999-025CTR", "EPOCH": "2025-12-12T23:36:33.645600", "MEAN_MOTION": 13.42566828, "ECCENTRICITY": 0.04886846, "INCLINATION": 102.8031, "RA_OF_ASC_NODE": 244.0575, "ARG_OF_PERICENTER": 5.4514, "MEAN_ANOMALY": 9.5388, "EPHEMERIS_TYPE": 0, "CLASSIFICATION_TYPE": "U", "NORAD_CAT_ID": 32171, "ELEMENT_SET_NO": 999, "REV_AT_EPOCH": 60619, "BSTAR": 0.0065627296, "MEAN_MOTION_DOT": 7.521e-05, "MEAN_MOTION_DDOT": 0}, "tle": {"line1": "1 32171U 99025CTR 25346.98372275  .00007521  00000+0  65627-2 0  9994", "line2": "2 32171 102.8031 244.0575 0488684   5.4514   9.5388 13.42566828606195"}}, "geometry": {"type": "Point", "coordinates": [57.933479937047906, -35.40253561068465]}}, {"type": "Feature", "properties": {"norad_id": 32174, "name": "FENGYUN 1C DEB", "group": "fengyun-1c-debris", "lat": 70.43445395002755, "lon": -103.24982040490859, "alt_km": 894.9190195516085, "timestamp": "2025-12-15T11:38:37.439235+00:00", "meta": {"OBJECT_NAME": "FENGYUN 1C DEB", "OBJECT_ID": "1999-025CTU", "EPOCH": "2025-12-14T21:34:34.410432", "MEAN_MOTION": 14.17923145, "ECCENTRICITY": 0.01505704, "INCLINATION": 98.6008, "RA_OF_ASC_NODE": 50.9784, "ARG_OF_PERICENTER": 239.665, "MEAN_ANOMALY": 118.9562, "EPHEMERIS_TYPE": 0, "CLASSIFICATION_TYPE": "U", "NORAD_CAT_ID": 32174, "ELEMENT_SET_NO": 999, "REV_AT_EPOCH": 64136, "BSTAR": 0.00031806491, "MEAN_MOTION_DOT": 6.84e-06, "MEAN_MOTION_DDOT": 0}, "tle": {"line1": "1 32174U 99025CTU 25348.89900938  .00000684  00000+0  31806-3 0  9998", "line2": "2 32174  98.6008  50.9784 0150570 239.6650 118.9562 14.17923145641361"}}, "geometry": {"type": "Point", "coordinates": [-103.24982040490859, 70.43445395002755]}}, {"type": "Feature", "properties": {"norad_id": 32175, "name": "FENGYUN 1C DEB", "group": "fengyun-1c-debris", "lat": 48.89723998071717, "lon": 168.18458427551772, "alt_km": 1017.7138862147931, "timestamp": "2025-12-15T11:38:37.439245+00:00", "meta": {"OBJECT_NAME": "FENGYUN 1C DEB", "OBJECT_ID": "1999-025CTV", "EPOCH": "2025-12-13T05:38:52.418688", "MEAN_MOTION": 13.94812593, "ECCENTRICITY": 0.01522225, "INCLINATION": 98.8234, "RA_OF_ASC_NODE": 335.7774, "ARG_OF_PERICENTER": 321.7151, "MEAN_ANOMALY": 37.3281, "EPHEMERIS_TYPE": 0, "CLASSIFICATION_TYPE": "U", "NORAD_CAT_ID": 32175, "ELEMENT_SET_NO": 999, "REV_AT_EPOCH": 59847, "BSTAR": 0.0044844572, "MEAN_MOTION_DOT": 6.587e-05, "MEAN_MOTION_DDOT": 0}, "tle": {"line1": "1 32175U 99025CTV 25347.23532892  .00006587  00000+0  44845-2 0  9990", "line2": "2 32175  98.8234 335.7774 0152222 321.7151  37.3281 13.94812593598476"}}, "geometry": {"type": "Point", "coordinates": [168.18458427551772, 48.89723998071717]}}, {"type": "Feature", "properties": {"norad_id": 32177, "name": "FENGYUN 1C DEB", "group": "fengyun-1c-debris", "lat": 28.261866362572153, "lon": -176.0698670945785, "alt_km": 718.977389677345, "timestamp": "2025-12-15T11:38:37.439254+00:00", "meta": {"OBJECT_NAME": "FENGYUN 1C DEB", "OBJECT_ID": "1999-025CTX", "EPOCH": "2025-12-14T18:27:55.831680", "MEAN_MOTION": 14.56250766, "ECCENTRICITY": 0.00518277, "INCLINATION": 99.0445, "RA_OF_ASC_NODE": 358.2424, "ARG_OF_PERICENTER": 39.0608, "MEAN_ANOMALY": 321.4312, "EPHEMERIS_TYPE": 0, "CLASSIFICATION_TYPE": "U", "NORAD_CAT_ID": 32177, "ELEMENT_SET_NO": 999, "REV_AT_EPOCH": 71068, "BSTAR": 0.0012210295, "MEAN_MOTION_DOT": 5.449e-05, "MEAN_MOTION_DDOT": 0}, "tle": {"line1": "1 32177U 99025CTX 25348.76939620  .00005449  00000+0  12210-2 0  9998", "line2": "2 32177  99.0445 358.2424 0051827  39.0608 321.4312 14.56250766710680"}}, "geometry": {"type": "Point", "coordinates": [-176.0698670945785, 28.261866362572153]}}, {"type": "Feature", "properties": {"norad_id": 32178, "name": "FENGYUN 1C DEB", "group": "fengyun-1c-debris", "lat": 36.15830579093081, "lon": -16.26089164555572, "alt_km": 801.2727356077221, "timestamp": "2025-12-15T11:38:37.439264+00:00", "meta": {"OBJECT_NAME": "FENGYUN 1C DEB", "OBJECT_ID": "1999-025CTY", "EPOCH": "2025-12-07T17:50:56.721120", "MEAN_MOTION": 14.22943585, "ECCENTRICITY": 0.00947686, "INCLINATION": 100.3035, "RA_OF_ASC_NODE": 342.3342, "ARG_OF_PERICENTER": 337.1658, "MEAN_ANOMALY": 22.5314, "EPHEMERIS_TYPE": 0, "CLASSIFICATION_TYPE": "U", "NORAD_CAT_ID": 32178, "ELEMENT_SET_NO": 999, "REV_AT_EPOCH": 63932, "BSTAR": 0.0022460255, "MEAN_MOTION_DOT": 5.238e-05, "MEAN_MOTION_DDOT": 0}, "tle": {"line1": "1 32178U 99025CTY 25341.74371205  .00005238  00000+0  22460-2 0  9993", "line2": "2 32178 100.3035 342.3342 0094768 337.1658  22.5314 14.22943585639326"}}, "geometry": {"type": "Point", "coordinates": [-16.26089164555572, 36.15830579093081]}}, {"type": "Feature", "properties": {"norad_id": 32179, "name": "FENGYUN 1C DEB", "group": "fengyun-1c-debris", "lat": -41.12734844929319, "lon": -149.6114114976726, "alt_km": 805.3066101575741, "timestamp": "2025-12-15T11:38:37.439274+00:00", "meta": {"OBJECT_NAME": "FENGYUN 1C DEB", "OBJECT_ID": "1999-025CTZ", "EPOCH": "2025-12-14T23:12:16.055136", "MEAN_MOTION": 14.03681546, "ECCENTRICITY": 0.01454947, "INCLINATION": 98.9091, "RA_OF_ASC_NODE": 37.753, "ARG_OF_PERICENTER": 183.7128, "MEAN_ANOMALY": 299.2147, "EPHEMERIS_TYPE": 0, "CLASSIFICATION_TYPE": "U", "NORAD_CAT_ID": 32179, "ELEMENT_SET_NO": 999, "REV_AT_EPOCH": 65759, "BSTAR": 0.00024420662, "MEAN_MOTION_DOT": 3.78e-06, "MEAN_MOTION_DDOT": 0}, "tle": {"line1": "1 32179U 99025CTZ 25348.96685249  .00000378  00000+0  24421-3 0  9991", "line2": "2 32179  98.9091  37.7530 0145494 183.7128 299.2147 14.03681546657596"}}, "geometry": {"type": "Point", "coordinates": [-149.6114114976726, -41.12734844929319]}}, {"type": "Feature", "properties": {"norad_id": 32180, "name": "FENGYUN 1C DEB", "group": "fengyun-1c-debris", "lat": -65.15755645030697, "lon": 51.062731971711436, "alt_km": 961.1168901692163, "timestamp": "2025-12-15T11:38:37.439285+00:00", "meta": {"OBJECT_NAME": "FENGYUN 1C DEB", "OBJECT_ID": "1999-025CUA", "EPOCH": "2025-12-11T09:04:15.508128", "MEAN_MOTION": 13.82327177, "ECCENTRICITY": 0.01363004, "INCLINATION": 99.5861, "RA_OF_ASC_NODE": 25.4776, "ARG_OF_PERICENTER": 214.0644, "MEAN_ANOMALY": 169.2809, "EPHEMERIS_TYPE": 0, "CLASSIFICATION_TYPE": "U", "NORAD_CAT_ID": 32180, "ELEMENT_SET_NO": 999, "REV_AT_EPOCH": 94249, "BSTAR": 0.00016381188, "MEAN_MOTION_DOT": 1.43e-06, "MEAN_MOTION_DDOT": 0}, "tle": {"line1": "1 32180U 99025CUA 25345.37795727  .00000143  00000+0  16381-3 0  9994", "line2": "2 32180  99.5861  25.4776 0136300 214.0644 169.2809 13.82327177942493"}}, "geometry": {"type": "Point", "coordinates": [51.062731971711436, -65.15755645030697]}}, {"type": "Feature", "properties": {"norad_id": 32181, "name": "FENGYUN 1C DEB", "group": "fengyun-1c-debris", "lat": -46.26932579754141, "lon": -96.41494332904318, "alt_km": 757.68437709313, "timestamp": "2025-12-15T11:38:37.439295+00:00", "meta": {"OBJECT_NAME": "FENGYUN 1C DEB", "OBJECT_ID": "1999-025CUB", "EPOCH": "2025-12-14T18:48:10.570752", "MEAN_MOTION": 14.56048318, "ECCENTRICITY": 0.00737019, "INCLINATION": 99.4727, "RA_OF_ASC_NODE": 92.8406, "ARG_OF_PERICENTER": 79.3612, "MEAN_ANOMALY": 71.1646, "EPHEMERIS_TYPE": 0, "CLASSIFICATION_TYPE": "U", "NORAD_CAT_ID": 32181, "ELEMENT_SET_NO": 999, "REV_AT_EPOCH": 96750, "BSTAR": 0.00065441291, "MEAN_MOTION_DOT": 2.93e-05, "MEAN_MOTION_DDOT": 0}, "tle": {"line1": "1 32181U 99025CUB 25348.78345568  .00002930  00000+0  65441-3 0  9994", "line2": "2 32181  99.4727  92.8406 0073701  79.3612  71.1646 14.56048318967502"}}, "geometry": {"type": "Point", "coordinates": [-96.41494332904318, -46.26932579754141]}}]}